EUTELSAT QUANTUM        
1 49056U 21069B   25288.92303164  .00000000  00000+0  00000+0 0  9993
2 49056   0.0109 121.0321 0002711 109.9539 173.6911  1.00269866 15476
EUTELSAT KONNECT VHTS   
1 53765U 22110A   25288.91410494  .00000003  00000+0  00000+0 0  9990
2 53765   0.0584  96.2858 0002587  96.5775 163.6032  1.00271327  4372
EUTELSAT HOTBIRD 13F    
1 54048U 22134A   25288.91618494  .00000073  00000+0  00000+0 0  9998
2 54048   0.0602 281.2352 0002164  76.6888   9.5981  1.00270067 10927
EUTELSAT HOTBIRD 13G    
1 54225U 22146A   25288.84485796  .00000073  00000+0  00000+0 0  9997
2 54225   0.0526 237.8461 0001920 303.7116 160.2249  1.00269883  5014
EUTELSAT 10B            
1 54259U 22157A   25288.91557828  .00000054  00000+0  00000+0 0  9999
2 54259   0.0606  93.6233 0001640  47.4877 223.1644  1.00269904 10579
EUTELSAT 36D            
1 59346U 24059A   25288.63532058  .00000141  00000+0  00000+0 0  9998
2 59346   0.0196 225.3511 0000172 337.1531  86.4693  1.00270948  5694
